#dP2018  8 24  0  0  0.00000000      96 __u+U ITR00 FIT  IAC
## 2015 432000.00000000   900.00000000 58354 0.0000000000000
+   87   C01C02C03C04C05C06C07C08C09C10C11C12C13C14E01E02E03
+        E04E05E07E08E09E11E12E14E18E19E24E26E30G01G02G03G04
+        G05G06G07G08G09G10G11G12G13G14G15G16G17G18G19G20G21
+        G22G23G24G25G26G27G28G29G30G31G32J01J02J03R01R02R03
+        R04R07R08R09R10R11R13R14R15R16R17R18R19R20R21R22R23
+        R24R26  0  0  0  0  0  0  0  0  0  0  0  0  0  0  0
++         0  0  0  0  0  0  0  0  0  0  0  0  0  0  0  0  0
++         0  0  0  0  0  0  0  0  0  0  0  0  0  0  0  0  0
++         0  0  0  0  0  0  0  0  0  0  0  0  0  0  0  0  0
++         0  0  0  0  0  0  0  0  0  0  0  0  0  0  0  0  0
++         0  0  0  0  0  0  0  0  0  0  0  0  0  0  0  0  0
++         0  0  0  0  0  0  0  0  0  0  0  0  0  0  0  0  0
%c M  cc GPS ccc cccc cccc cccc cccc ccccc ccccc ccccc ccccc
%c cc cc ccc ccc cccc cccc cccc cccc ccccc ccccc ccccc ccccc
%f  0.0000000  0.000000000  0.00000000000  0.000000000000000
%f  0.0000000  0.000000000  0.00000000000  0.000000000000000
%i    0    0    0    0      0      0      0      0         0
%i    0    0    0    0      0      0      0      0         0
/*                                                          
/*   RSA / INFORMATION & ANALYSIS CENTER (IAC) OF MCC       
/*   ULTRA-RAPID DETERMINATION                              
/* PCV:IGS14_2000 OL/AL:FES2004  NONE     YN ORB:CoN CLK:CoN
*  2018 08 24 10 45  0.00000000
PC01 -32329.358448  27059.979475  -1074.492785    510.948174
PC02   4345.035735  41920.207895   1025.625594   -125.353397
PC03 -14723.205597  39512.063689   -661.388768   -375.397138
PC04 -39624.910636  14375.482966   -607.644037   -136.515609
PC05  21906.266861  36025.486268    915.669213    -71.648423
PC06  -6051.854214  29411.652305  30011.900631    246.755446
PC07 -22224.293833  23777.334120 -26920.724849      9.790353
PC08 -19119.451316  37286.104206  -3040.135023    497.109804
PC09   4931.579277  36351.127711  21253.542734     53.321822
PC10  -6756.163830  25989.895811 -32434.678701    -16.478529
PC11  13946.573609  14432.868051  19404.041152   -649.270433
PC12   4770.562860  27192.056697   3745.930154    574.185100
PC13  -9849.043518  39533.171678  10350.218919   -242.441624
PC14  24081.732146  13756.770812   3382.624568    260.883636
PE01 -19319.976739  -9082.430954  20515.324019   -419.644799
PE02  19338.943446   9059.880689 -20489.974533     24.748402
PE03  21311.663471  20443.531762  -1896.542450    -69.238130
PE04 -22718.983559  -4997.498876  18313.452532   -102.802287
PE05   7410.862972  23977.388181  15700.417364    205.919101
PE07  10766.566482 -13475.055923 -24044.495113    -25.689591
PE08  22671.099981   4849.698207 -18387.897974   6517.049692
PE09 -10588.037932  13440.689564  24164.175288   6696.968406
PE11 -14022.016339  23906.875793 -10421.525454   4113.793339
PE12 -17625.331672   4968.840455 -23261.224591   4897.588245
PE14  -8025.399791  24743.663232 -18104.130689   6530.458757
PE18  -1515.542377 -24217.485827   6327.511249   5959.325964
PE19 -20531.990065 -21319.388697     92.939100    -12.900667
PE24 -21557.308593  14658.441804 -14021.094932   6530.363570
PE26   2470.044642 -28381.433418  -8057.543793   5557.684068
PE30  28986.033700  -3890.553922  -4557.899219   5570.163092
PG01  12681.776622 -22262.799679  -6534.484496    -79.973625
PG02 -19687.230067  12148.299378 -12276.761024     18.754062
PG03   6964.177066 -14022.354618 -21476.739111    126.288473
PG04  24791.016368   8520.657759  -5381.213470     91.595415
PG05 -24390.333932   3757.035977   9987.446853     -2.800096
PG06 -15527.958421  -3838.403476 -21179.700561    372.485938
PG07   -616.801237 -19218.571638  18352.670703    136.311641
PG08   9189.498492 -14570.684890  20215.634583   -112.742481
PG09  -6576.051566 -25355.240030  -4388.340609    509.813463
PG10  21694.634121  11134.330885  10771.592692    185.540647
PG11   9074.211022 -24806.874702   3063.958624   -722.800725
PG12 -13093.538150  10903.067500 -20517.930925    311.880834
PG13 -13848.081835   6202.567967  21690.791624    -90.451113
PG14  16200.872596  10165.711462 -18198.904849    -97.545775
PG15  -6013.562553  18365.662577  17831.655417   -347.732361
PG16  25140.879089    174.971807   9034.218058     12.200588
PG17 -14211.396349 -19032.450017 -11618.244837    -63.750283
PG18  17047.793367 -20065.506471   2235.789116     49.264603
PG19 -15903.378345  -9748.622647 -19149.716206   -409.004836
PG20  13856.730265  13993.732192  17745.688998    514.678598
PG21   5206.243266  17462.573596  20137.989040   -347.827843
PG22  15361.956263 -11919.684703 -17846.515158   -498.642675
PG23   1082.190369 -22798.900798 -12923.064073   -212.227950
PG24 -14574.251782  21924.804860  -2044.588856    -54.405065
PG25   3181.384345  15429.402193 -21598.719877   -636.418122
PG26  26206.010775   4625.408246  -1168.640436    -41.889013
PG27  14816.940292  -2455.212039  21839.444991    351.345221
PG28 -18596.246200 -13950.147786  13416.066309    740.235048
PG29   4029.865011  25662.249590  -5567.128604    389.987256
PG30  -9963.732942 -12151.975050  21420.572715     33.495363
PG31  17161.533578   1819.926261 -20267.818010     98.464251
PG32  15894.600368  17542.043864 -12094.541895   -443.287587
PJ01 -25172.196616  25027.032677  27911.515968   -130.405673
PJ02 -36092.248205  21178.635495   -177.644514     -7.317296
PJ03 -19338.035776  24634.741318 -23628.155650     -1.758229
PR01 -18561.816063  -2772.454224  17287.364499     30.975430
PR02  -2643.853983  11358.383400  22730.602979    326.259030
PR03  13263.193099  17337.480717  13273.178999    141.373393
PR04  21562.931079  12919.825541  -4364.442751    273.582433
PR07 -13595.089873 -17323.029072 -12808.776748    -45.506560
PR08 -21474.615210 -13242.877687   3801.161428     21.642565
PR09  14206.268264 -14418.180389  15493.636545     24.828890
PR10  -2317.982171 -10583.292065  23073.661517     30.351926
PR11 -18756.715391   -787.895919  17316.664182    -38.695487
PR13 -14418.323280  14501.584243 -15268.960831    -13.894647
PR14   2250.219901  10891.875880 -22939.709778     30.351430
PR15  15567.556214   3243.881934 -19963.277144    -15.188574
PR16  23567.449904  -9557.879042  -2607.385010    100.056449
PR17   1501.422683  23900.382167   8730.110986    158.595752
PR18   8422.763141  11678.524299  21076.843323    207.971761
PR19  10887.849793  -7084.417431  21947.326831    -58.458051
PR20   6996.516933 -22814.616176   8952.808799   -349.787847
PR21  -1673.126281 -23780.627922  -9122.851477      0.377315
PR22  -8995.792414  -9303.156843 -21959.730688    -59.968390
PR23 -10475.700161  11578.709319 -20183.376845    173.913878
PR24  -6180.388166  23464.929182  -7912.160600   -170.498498
PR26   7014.074582 -22379.317159  10071.612525     42.820303
EOF
